parent,address,distance,pname,importance,biz_ext,biz_type,cityname,type,photos,typecode,shopinfo,poiweight,childtype,adname,name,location,tel,shopid,id
B0FFK4HFDB,石井街道田头社区兰田路3002号深圳技术大学,139,广东省,[],"{'cost': [], 'opentime2': '周一至周五 09:00-21:00', 'rating': '4.4', 'open_time': '09:00-21:00', 'meal_ordering': '0'}",diner,深圳市,餐饮服务;中餐厅;中餐厅,"[{'title': [], 'url': 'https://aos-comment.amap.com/B0JGPAK0BH/comment/140b4dbdbaed63e66440d348aee457d4_2048_2048_80.jpg'}, {'title': [], 'url': 'https://aos-comment.amap.com/B0JGPAK0BH/comment/6fa2467c1b65429a31ce46b944bd8064_2048_2048_80.jpg'}, {'title': [], 'url': 'https://aos-comment.amap.com/B0JGPAK0BH/comment/content_media_external_images_media_100012180_1745845676162_14449066.jpg'}]",050100,0,[],309,坪山区,深圳技术大学湖景餐厅,"114.398261,22.701848",[],[],B0JGPAK0BH
B0FFH2SMWE,石井街道田头社区竹坳路3号竹韵花园,227,广东省,[],"{'cost': [], 'opentime2': '周一至周六 07:00-09:00,11:00-13:00,17:00-22:00', 'rating': '4.4', 'open_time': [], 'meal_ordering': '0'}",diner,深圳市,餐饮服务;中餐厅;中餐厅,"[{'title': [], 'url': 'http://store.is.autonavi.com/showpic/ec188b2473116fd161317a4ab40b49f7'}, {'title': [], 'url': 'http://store.is.autonavi.com/showpic/d2337c027019db7786090bb1610c06e4'}, {'title': [], 'url': 'https://aos-comment.amap.com/B0K1TBU0ND/comment/98232FF3_BBC7_49DA_97F2_8A8BDCB4D186_L0_001_1080_192_1759540396723_42750654.jpg'}]",050100,0,[],320,坪山区,深圳技术大学学生餐厅(竹韵),"114.400368,22.702151",[],[],B0K1TBU0ND
[],石井街道深圳技术大学图书馆2层207室,232,广东省,[],"{'cost': '14.00', 'opentime2': '周一至周日 07:00-22:00', 'rating': '4.5', 'open_time': '07:00-22:00', 'meal_ordering': '0'}",diner,深圳市,餐饮服务;咖啡厅;咖啡厅,"[{'title': [], 'url': 'https://store.is.autonavi.com/showpic/c287706810a95e84ab635a931ccf264d?operate=original'}, {'title': [], 'url': 'http://store.is.autonavi.com/showpic/3d4e77877d3c98ba990a9c016557bef2'}, {'title': [], 'url': 'https://aos-comment.amap.com/B0LB9MP76W/comment/content_media_external_file_100000800_1751178522866_49916224.jpg'}]",050500,0,[],[],坪山区,瑞幸咖啡(深圳技术大学图书馆店),"114.397645,22.698916",[],[],B0LB9MP76W
[],石井街道田头社区马鞍岭西区三巷1-3号,409,广东省,[],"{'cost': '12.00', 'opentime2': '周一至周日 09:00-22:00', 'rating': '4.2', 'open_time': '09:00-22:00', 'meal_ordering': '0'}",diner,深圳市,餐饮服务;冷饮店;冷饮店,"[{'title': [], 'url': 'https://aos-comment.amap.com/B0K1UCGBQN/comment/IMG_20250625_174013_tem_1750844432152_09909455.jpg'}, {'title': [], 'url': 'https://aos-comment.amap.com/B0K1UCGBQN/comment/IMG_20250625_174100_tem_1750844479239_44878718.jpg'}, {'title': [], 'url': 'https://aos-comment.amap.com/B0K1UCGBQN/comment/IMG_20250625_174143_tem_1750844524429_03718587.jpg'}]",050700,0,[],[],坪山区,可甜可咸技术大学店,"114.402559,22.701954",13640998907,[],B0K1UCGBQN
[],石井街道田头社区马鞍岭西区三巷1-3号,409,广东省,[],"{'cost': '27.00', 'opentime2': '周一至周日 00:00-24:00', 'rating': '3.8', 'open_time': '24小时营业', 'meal_ordering': '0'}",diner,深圳市,餐饮服务;餐饮相关场所;餐饮相关,"[{'title': [], 'url': 'http://store.is.autonavi.com/showpic/ee5ee6cf407cca2ad6e0328da36c91a7'}]",050000,1,[],[],坪山区,江南粥铺(竹坑店),"114.402559,22.701954",18320779836,[],B0J2CZZ0LU
[],深圳技术大学国际学术交流中心1034酒店,429,广东省,[],"{'cost': [], 'opentime2': '周一至周日 00:00-24:00', 'rating': '4.4', 'open_time': '24小时营业', 'meal_ordering': '0'}",diner,深圳市,餐饮服务;中餐厅;中餐厅,"[{'title': [], 'url': 'https://aos-comment.amap.com/B0JGUSI0MI/comment/eb857a143f36764eb6d022fe927e7b64_2048_2048_80.jpg'}, {'title': [], 'url': 'https://aos-comment.amap.com/B0I3MUOP3E/comment/c7de215a8f504845365c3fc1a37db4d8_2048_2048_80.jpg'}, {'title': [], 'url': 'https://aos-comment.amap.com/B0I3MUOP3E/comment/de0485b2db456961e7c599f735876d84_2048_2048_80.jpg'}]",050100,0,[],[],坪山区,深圳技术大学1034餐厅,"114.394693,22.701413",0755-89663333,[],B0I3MUOP3E
[],创鞍路与马鞍岭路交叉口西北40米,441,广东省,[],"{'cost': [], 'opentime2': [], 'rating': '3.6', 'open_time': [], 'meal_ordering': '0'}",diner,深圳市,餐饮服务;快餐厅;快餐厅,"[{'title': [], 'url': 'http://store.is.autonavi.com/showpic/e148b0b4f6a62270f938fd500fb91cf8'}]",050300,0,[],[],坪山区,有明原味猪脚饭,"114.402869,22.702011",15013761593,[],B0H0VS1IFN
[],创鞍路与马鞍岭路交叉口西北80米,445,广东省,[],"{'cost': '22.00', 'opentime2': [], 'rating': '4.0', 'open_time': [], 'meal_ordering': '0'}",diner,深圳市,餐饮服务;中餐厅;中餐厅,[],050100,0,[],[],坪山区,技大阿叔炒粉,"114.402772,22.702329",13632922447,[],B0JA9NGKAX
[],石井街道马鞍岭西区一巷2号潮客鲍汁猪扒饭,461,广东省,[],"{'cost': [], 'opentime2': '周一至周日 08:00-22:00', 'rating': '4.3', 'open_time': '08:00-22:00', 'meal_ordering': '0'}",diner,深圳市,餐饮服务;中餐厅;中餐厅,"[{'title': [], 'url': 'http://store.is.autonavi.com/showpic/93d7729c7bd29ad05c78efe414772505'}, {'title': [], 'url': 'http://store.is.autonavi.com/showpic/323dbc0d97b6883709cad7e77ce25ef7'}, {'title': [], 'url': 'http://store.is.autonavi.com/showpic/ac4bbfb37f5d4657bdb1667a30ce6d14'}]",050100,1,[],[],坪山区,潮客鲍汁猪扒饭,"114.403041,22.702092",13480735689,[],B0J37HUVXH
[],创景路与坪河南路交叉口马鞍岭西区1-1,466,广东省,[],"{'cost': [], 'opentime2': '09:30-23:00', 'rating': '3.5', 'open_time': '09:30-23:00', 'meal_ordering': '0'}",diner,深圳市,餐饮服务;中餐厅;湖南菜(湘菜),"[{'title': [], 'url': 'http://store.is.autonavi.com/showpic/54a363d3a0e63abf78ded96264d89ba2'}]",050108,0,[],[],坪山区,秀婷湘菜馆,"114.403133,22.701975",13530099091,[],B0FFKK7PIB
[],石井街道马鞍岭东区一巷一号,489,广东省,[],"{'cost': '65.00', 'opentime2': [], 'rating': '4.2', 'open_time': [], 'meal_ordering': '0'}",diner,深圳市,餐饮服务;餐饮相关场所;餐饮相关,"[{'title': [], 'url': 'http://store.is.autonavi.com/showpic/e5343f33bee3ecad81d7c561911b69a3'}, {'title': [], 'url': 'http://store.is.autonavi.com/showpic/cebe906fd037fac076752b52f6bdc44d'}]",050000,0,[],[],坪山区,赵家巷淄博烧烤·韩式烤肉,"114.403403,22.701885",[],[],B0LU6LOOHB
[],石井街道田头社区马鞍岭东区一巷2号,492,广东省,[],"{'cost': [], 'opentime2': '周一至周日 09:00-21:00', 'rating': '4.2', 'open_time': '09:00-21:00', 'meal_ordering': '0'}",diner,深圳市,餐饮服务;中餐厅;湖南菜(湘菜),"[{'title': [], 'url': 'https://aos-comment.amap.com/B0FFL6D9K6/headerImg/16e54fc4da4e8759148d2cd4d930a2a8_2048_2048_80.jpg'}, {'title': [], 'url': 'http://aos-cdn-image.amap.com/sns/ugccomment/dc7e9918-f20e-40f9-970b-cf81d12262b3.jpg'}, {'title': [], 'url': 'https://aos-comment.amap.com/B0FFL6D9K6/headerImg/ea28536accd825352a91da1f54bd8f32_2048_2048_80.jpg'}]",050108,1,[],[],坪山区,常湘缘湘菜馆,"114.403380,22.702052",18824665335,[],B0FFL6D9K6
[],马安岭南区2号,494,广东省,[],"{'cost': [], 'opentime2': [], 'rating': '4.5', 'open_time': [], 'meal_ordering': '0'}",[],深圳市,体育休闲服务;休闲场所;休闲场所|餐饮服务;餐饮相关场所;餐饮相关,"[{'title': [], 'url': 'http://store.is.autonavi.com/showpic/e1d77359c9542db33d596acb14b8c60f'}, {'title': [], 'url': 'https://aos-comment.amap.com/B0FFHIQAG3/comment/content_media_external_file_100004298_1754645072916_25454687.jpg'}, {'title': [], 'url': 'http://store.is.autonavi.com/showpic/1fea863da1ef33bce147b3d0c69213f6'}]",080500|050000,1,[],[],坪山区,田头农庄,"114.403555,22.701455",0755-28477346,[],B0FFHIQAG3
[],马鞍岭路与创鞍路交叉口北100米,510,广东省,[],"{'cost': [], 'opentime2': [], 'rating': '3.9', 'open_time': [], 'meal_ordering': '0'}",diner,深圳市,餐饮服务;中餐厅;中餐厅,"[{'title': [], 'url': 'http://store.is.autonavi.com/showpic/052782267af5d58b6f40ef0c241bc1a7'}]",050100,0,[],[],坪山区,盛鑫烤鱼砂锅粥,"114.403295,22.702675",13537206968,[],B0H31PYBYL
[],石井街道马鞍岭南区13号,538,广东省,[],"{'cost': [], 'opentime2': [], 'rating': '4.0', 'open_time': [], 'meal_ordering': '0'}",diner,深圳市,餐饮服务;快餐厅;快餐厅,"[{'title': [], 'url': 'http://store.is.autonavi.com/showpic/692b96ad46b6438164229ce731679595'}]",050300,0,[],[],坪山区,泽记隆江猪脚饭,"114.403885,22.701894",13544177759;15918815621,[],B0JU47E6KG
[],深圳技术大学南区A-1宿舍,563,广东省,[],"{'cost': [], 'opentime2': [], 'rating': '4.5', 'open_time': [], 'meal_ordering': '0'}",diner,深圳市,餐饮服务;中餐厅;中餐厅,"[{'title': [], 'url': 'http://store.is.autonavi.com/showpic/8e4f6fb7558c7b4e51842a6791a4e5d8'}]",050100,0,[],[],坪山区,深圳技术大学南区A-0学生饭堂,"114.396725,22.696025",[],[],B0KROZRILH
[],马鞍岭路与创鞍路交叉口东北240米,701,广东省,[],"{'cost': [], 'opentime2': [], 'rating': '4.5', 'open_time': [], 'meal_ordering': '0'}",diner,深圳市,餐饮服务;餐饮相关场所;餐饮相关,"[{'title': [], 'url': 'http://store.is.autonavi.com/showpic/34d6fa37974919887cdc2dbe9d931e85'}, {'title': [], 'url': 'https://aos-comment.amap.com/B0GUKSBX2U/comment/6adbe386eb983903d5da380feb1a599f_2048_2048_80.jpg'}, {'title': [], 'url': 'https://aos-comment.amap.com/B0GUKSBX2U/comment/6d200302f5fb6ffe572911015f7ed294_2048_2048_80.jpg'}]",050000,0,[],[],坪山区,深圳技术大学E-0食堂,"114.405210,22.702910",[],[],B0GUKSBX2U
B0FFK0N0HE,中海万锦熙岸华庭154-157号,719,广东省,[],"{'cost': '61.00', 'opentime2': '周一至周日 06:00-21:00', 'rating': '4.2', 'open_time': '06:00-21:00', 'meal_ordering': '0'}",diner,深圳市,餐饮服务;中餐厅;中餐厅,"[{'title': [], 'url': 'https://store.is.autonavi.com/showpic/de49c159086d07b65c68724f0f0710e9'}, {'title': [], 'url': 'https://aos-comment.amap.com/B0JUHS1PYJ/comment/3A982115_AFC9_43BE_A09D_DABB45AAAA20_L0_001_2000_1500_1738319462912_85554521.jpg'}, {'title': [], 'url': 'http://store.is.autonavi.com/showpic/34701a225ae6b931e416416b5d2eb094'}]",050100,0,[],320,坪山区,坪河岸上餐馆,"114.394492,22.705796",15915480252,[],B0JUHS1PYJ
[],金田路207号万象创客园莫石特,771,广东省,[],"{'cost': [], 'opentime2': '周一至周五 10:00-20:00；周六至周日 10:00-23:00', 'rating': '3.9', 'open_time': '10:00-20:00', 'meal_ordering': '0'}",diner,深圳市,餐饮服务;咖啡厅;咖啡厅,"[{'title': [], 'url': 'https://store.is.autonavi.com/showpic/e40f74ae7779b1077114b9490bde4e4b'}, {'title': [], 'url': 'https://store.is.autonavi.com/showpic/3537faca02dd7ecc7b7f0ac956b06261'}, {'title': [], 'url': 'https://store.is.autonavi.com/showpic/ee134fde73b906cf57c143fbc0273517'}]",050500,1,[],[],坪山区,莫石特·时光里水吧,"114.398990,22.693778",15208399002,[],B0KASUIK1H
[],创景路与坪山金田路交叉口北120米,802,广东省,[],"{'cost': [], 'opentime2': [], 'rating': '3.7', 'open_time': [], 'meal_ordering': '0'}",diner,深圳市,餐饮服务;中餐厅;中餐厅,"[{'title': [], 'url': 'https://store.is.autonavi.com/showpic/f91ce93dc03b4b6859485909e873f0c1'}]",050100,0,[],[],坪山区,客家腌面(创景南路店),"114.401040,22.693793",[],[],B0LDBAESXT
B0FFK0N0HE,龙田街道竹坑社区中海万锦熙岸华庭7栋134,820,广东省,[],"{'cost': [], 'opentime2': '周一至周日 09:00-24:00', 'rating': '3.9', 'open_time': '09:00-24:00', 'meal_ordering': '0'}",diner,深圳市,餐饮服务;冷饮店;冷饮店,"[{'title': [], 'url': 'http://store.is.autonavi.com/showpic/1e02b939a2ca40ef0922b1b0538146a5'}, {'title': [], 'url': 'http://store.is.autonavi.com/showpic/bfe2294f54dcd37ba534b018f423f203'}, {'title': [], 'url': 'http://store.is.autonavi.com/showpic/b2ba9aa7b7e6f206b1625f6771a1bb12'}]",050700,1,[],320,坪山区,近客鲜果时光生活馆(中海万锦熙岸华庭店),"114.393880,22.706503",15999582135,[],B0JU3YO6UN
B0FFK3GKUY,广东省深圳市坪山区万象创客园内c幢,823,广东省,[],"{'cost': [], 'opentime2': '周一至周日 09:00-23:00', 'rating': '4.1', 'open_time': '09:00-23:00', 'meal_ordering': '0'}",diner,深圳市,餐饮服务;中餐厅;中餐厅,"[{'title': [], 'url': 'https://aos-comment.amap.com/B0HBXAP02L/headerImg/4e8a20c80da79d2a6db9fbad71489fb1_2048_2048_80.jpg'}, {'title': [], 'url': 'http://store.is.autonavi.com/showpic/8cd1942cf95ffe3fbcbea76f0ed3aec5'}, {'title': [], 'url': 'https://aos-comment.amap.com/B0HBXAP02L/headerImg/d6c5a431ee628ae1bf5704b8cbb62a85_2048_2048_80.jpg'}]",050100,1,[],320,坪山区,津味轩食府(万象创客园店),"114.398644,22.693312",0755-89998959,[],B0HBXAP02L
B0JAMRJ639,田头社区创景南路二栋一楼,836,广东省,[],"{'cost': '64.00', 'opentime2': '周一至周日 10:00-22:30', 'rating': '4.1', 'open_time': '10:00-22:30', 'meal_ordering': '0'}",diner,深圳市,餐饮服务;中餐厅;火锅店,"[{'title': [], 'url': 'https://store.is.autonavi.com/showpic/f3d844753cd84ef2f96aa0579d1e0b59'}, {'title': [], 'url': 'http://store.is.autonavi.com/showpic/5bec1d6d27764b8f8256bca6ae854bfb'}, {'title': [], 'url': 'http://store.is.autonavi.com/showpic/afbb54e52b897e42e4187a7c875d7de6'}]",050117,1,[],320,坪山区,逸香居四季椰子鸡(田头创景南路店),"114.401038,22.693482",13828779086,[],B0FFHY3HBD
B0FFK0N0HE,中海万锦熙岸华庭,844,广东省,[],"{'cost': '24.00', 'opentime2': [], 'rating': '4.1', 'open_time': [], 'meal_ordering': '0'}",diner,深圳市,餐饮服务;中餐厅;中餐厅,"[{'title': [], 'url': 'https://aos-comment.amap.com/B0J3NDPCLZ/headerImg/24f8980a951198541c575c534714ad94_2048_2048_80.jpg'}, {'title': [], 'url': 'http://store.is.autonavi.com/showpic/bee83d044ede09df7061cd968d39c1b6'}]",050100,0,[],320,坪山区,知遇小馆(中海万锦熙岸华庭店),"114.394585,22.707217",15989457757,[],B0J3NDPCLZ
B0JAMRJ639,创景路5-4(技术大学地铁站A口步行490米),845,广东省,[],"{'cost': '27.00', 'opentime2': '周一至周日 11:30-19:30', 'rating': '4.5', 'open_time': '11:30-19:30', 'meal_ordering': '0'}",diner,深圳市,餐饮服务;餐饮相关场所;餐饮相关,"[{'title': [], 'url': 'http://store.is.autonavi.com/showpic/be44e8b90352918886343f18ca8bef43'}, {'title': [], 'url': 'http://store.is.autonavi.com/showpic/8419caed19f61753a3cf59f1543c7d1f'}]",050000,1,[],320,坪山区,老朱家潮汕牛肉,"114.401051,22.693395",18025367406,[],B0KRPAK7UI
[],龙田街道竹坑社区竹青路118-101号,849,广东省,[],"{'cost': '37.00', 'opentime2': '周一至周日 09:30-21:00', 'rating': '4.0', 'open_time': '09:30-21:00', 'meal_ordering': '0'}",diner,深圳市,餐饮服务;快餐厅;快餐厅,"[{'title': [], 'url': 'https://aos-comment.amap.com/B0I1DSPLXC/comment/99c001ae008f335f891ffa06b8a46954_2048_2048_80.jpg'}, {'title': [], 'url': 'https://aos-comment.amap.com/B0I1DSPLXC/headerImg/content_media_external_images_media_64638_1660464751706_05c51e88.jpg'}, {'title': [], 'url': 'https://aos-comment.amap.com/B0I1DSPLXC/comment/6fe426e9c0b4fc1c7cf25d49e3100035_2048_2048_80.jpg'}]",050300,0,[],[],坪山区,哈帝斯汉堡HOTTIES(奥园店),"114.392680,22.705826",13049851410,[],B0I1DSPLXC
B0FFLQAIOV,龙田街道竹坑社区金牛东路145号奥园·翡翠东湾二期,850,广东省,[],"{'cost': '13.00', 'opentime2': [], 'rating': '3.8', 'open_time': [], 'meal_ordering': '0'}",diner,深圳市,餐饮服务;冷饮店;冷饮店,"[{'title': [], 'url': 'http://store.is.autonavi.com/showpic/eb14239ded86ae6656ad16a97666ff08'}]",050700,0,[],320,坪山区,可斯克新加坡鲜奶茶(奥园·翡翠东湾二期店),"114.392424,22.705572",13587631957,[],B0KUV9TVJQ
B0FFLQAIOV,龙田街道竹坑社区金牛东路145号奥园·翡翠东湾二期,853,广东省,[],"{'cost': [], 'opentime2': [], 'rating': '3.7', 'open_time': [], 'meal_ordering': '0'}",diner,深圳市,餐饮服务;餐饮相关场所;餐饮相关,[],050000,0,[],320,坪山区,喜喝柠檬茶,"114.392420,22.705616",13587631957,[],B0K03NSFDN
B0JAMRJ639,石井街道田头社区创景南路5-1,856,广东省,[],"{'cost': '20.00', 'opentime2': '周一至周日 08:00-23:30', 'rating': '4.1', 'open_time': '08:00-23:30', 'meal_ordering': '0'}",diner,深圳市,餐饮服务;中餐厅;中餐厅,"[{'title': [], 'url': 'http://store.is.autonavi.com/showpic/f752b53c4dbe1f1b581dc7ea1698c1c0'}, {'title': [], 'url': 'http://store.is.autonavi.com/showpic/0cfa204cb3eeb49586d18e9cced84caa'}]",050100,1,[],320,坪山区,河南面馆,"114.401060,22.693293",13713660039,[],B0FFJRXGGA
[],金牛东路与开景路交叉口东南200米,861,广东省,[],"{'cost': [], 'opentime2': [], 'rating': '3.9', 'open_time': [], 'meal_ordering': '0'}",diner,深圳市,餐饮服务;中餐厅;中餐厅,"[{'title': [], 'url': 'https://aos-comment.amap.com/B0KGLHK1H4/comment/content_media_external_images_media_1000125136_ss__1756171497601_54295332.jpg'}, {'title': [], 'url': 'https://aos-comment.amap.com/B0KGLHK1H4/comment/content_media_external_images_media_1000125138_ss__1756171497595_47746007.jpg'}, {'title': [], 'url': 'http://store.is.autonavi.com/showpic/c6fd1c901271539035994a68b9fed421'}]",050100,0,[],[],坪山区,老上海馄饨铺(安居御龙苑店),"114.394587,22.707392",19925376001,[],B0KGLHK1H4
B0FFLQAIOV,奥园翡翠东湾2期商铺3栋110号,868,广东省,[],"{'cost': [], 'opentime2': '周一至周日 09:00-21:00', 'rating': '4.1', 'open_time': '09:00-21:00', 'meal_ordering': '0'}",diner,深圳市,餐饮服务;中餐厅;中餐厅,"[{'title': [], 'url': 'http://store.is.autonavi.com/showpic/153e216d08a5be51a0ea647bf73cb193'}, {'title': [], 'url': 'http://store.is.autonavi.com/showpic/3865edfcb1173ec7f190a494318a6195'}, {'title': [], 'url': 'http://store.is.autonavi.com/showpic/7f34103daed98d44aa6541fbad63b6e0'}]",050100,1,[],320,坪山区,紫金八刀汤(奥园·翡翠东湾二期店),"114.392362,22.705759",13825214602,[],B0J3SAZHMT
B0FFLQAIOV,金牛东路145-51,871,广东省,[],"{'cost': [], 'opentime2': [], 'rating': '3.8', 'open_time': [], 'meal_ordering': '0'}",diner,深圳市,餐饮服务;快餐厅;快餐厅,"[{'title': [], 'url': 'http://store.is.autonavi.com/showpic/7c0494f7e649a13e862b722df55d7433'}]",050300,0,[],320,坪山区,东记猪扒包,"114.392399,22.705840",[],[],B0LUUCI4Z2
B0FFK0N0HE,中海万锦熙岸华庭6栋121商铺,873,广东省,[],"{'cost': [], 'opentime2': '周一至周日 06:30-24:00', 'rating': '4.2', 'open_time': '06:30-24:00', 'meal_ordering': '0'}",diner,深圳市,餐饮服务;中餐厅;特色/地方风味餐厅,"[{'title': [], 'url': 'http://store.is.autonavi.com/showpic/f8c6ec88c5054d3595f856807fc2a7e5'}, {'title': [], 'url': 'http://store.is.autonavi.com/showpic/b523354af550a56907c543b200fec3d7'}]",050118,1,[],320,坪山区,沙县小吃(中海万锦熙岸华庭店),"114.394046,22.707204",[],[],B0J1MXZOKK
[],上坝三路与上坝二路交叉口西北80米,876,广东省,[],"{'cost': [], 'opentime2': [], 'rating': '3.6', 'open_time': [], 'meal_ordering': '0'}",diner,深圳市,餐饮服务;餐饮相关场所;餐饮相关,"[{'title': [], 'url': 'http://store.is.autonavi.com/showpic/207223c0b577c5d00d6e52b29bd8da46'}]",050000,0,[],[],坪山区,吃鸡同学·手撕鸡,"114.396818,22.708361",15819608570,[],B0KBBMH3ZG
[],上坝二路与上坝三路交叉口北60米,877,广东省,[],"{'cost': [], 'opentime2': [], 'rating': '3.8', 'open_time': [], 'meal_ordering': '0'}",diner,深圳市,餐饮服务;中餐厅;中餐厅,"[{'title': [], 'url': 'http://store.is.autonavi.com/showpic/45ec8b312f29a985cc536cb614b4b96f'}]",050100,0,[],[],坪山区,鹅掌门(上坝二路店),"114.397209,22.708445",[],[],B0JU5MDIBW
[],田头社区创景路3号,881,广东省,[],"{'cost': '26.00', 'opentime2': '周一至周日 07:00-14:00，16:00-21:00', 'rating': '4.4', 'open_time': '07:00-14:00 16:00-21:00', 'meal_ordering': '0'}",diner,深圳市,餐饮服务;中餐厅;中餐厅,"[{'title': [], 'url': 'http://store.is.autonavi.com/showpic/5f598839e64da50d6cbb5f05755f6acb'}, {'title': [], 'url': 'http://store.is.autonavi.com/showpic/eab16a4581b0f1a665bb78e7e805fde9'}]",050100,1,[],[],坪山区,紫金八刀汤,"114.401077,22.693064",13510323844,[],B0KA4H8QQ4
[],竹青路126-1号,885,广东省,[],"{'cost': '72.00', 'opentime2': [], 'rating': '4.1', 'open_time': [], 'meal_ordering': '0'}",diner,深圳市,餐饮服务;中餐厅;中餐厅,"[{'title': [], 'url': 'https://store.is.autonavi.com/showpic/d4c7031eafbb8ec7e2c89e1341253dce'}]",050100,0,[],[],坪山区,湖南小院,"114.392709,22.706323",[],[],B0LGH1SSXP
[],石井街道石井社区上屋村5-1,885,广东省,[],"{'cost': '78.00', 'opentime2': '周一至周日 10:00-22:00', 'rating': '4.7', 'open_time': '10:00-22:00', 'meal_ordering': '0'}",diner,深圳市,餐饮服务;中餐厅;中餐厅,"[{'title': [], 'url': 'https://aos-comment.amap.com/B0K33S5KUB/comment/content_media_external_images_media_100001144_1731333675450_16168295.jpg'}, {'title': [], 'url': 'http://store.is.autonavi.com/showpic/35fe10035c05356ce1dff6790aba2d12'}, {'title': [], 'url': 'https://aos-comment.amap.com/B0K33S5KUB/comment/1cb67b36885f0a5ac001053c122f9d29_2048_2048_80.jpg'}]",050100,0,[],[],坪山区,上屋椰子鸡餐厅,"114.394018,22.694090",0755-28828586;13622376298,[],B0K33S5KUB
[],杜岗路与求水岭路交叉口西南60米,895,广东省,[],"{'cost': [], 'opentime2': [], 'rating': '4.1', 'open_time': [], 'meal_ordering': '0'}",diner,深圳市,餐饮服务;中餐厅;中餐厅,"[{'title': [], 'url': 'https://store.is.autonavi.com/showpic/83f7d529c461df8a89872382b7ddcf31'}]",050100,0,[],[],坪山区,深圳技术大学-西餐厅,"114.405837,22.705468",[],[],B0I3FRW7PC
[],龙田街道上坝村46栋-2,909,广东省,[],"{'cost': [], 'opentime2': [], 'rating': '3.7', 'open_time': [], 'meal_ordering': '0'}",diner,深圳市,餐饮服务;餐饮相关场所;餐饮相关,"[{'title': [], 'url': 'http://store.is.autonavi.com/showpic/c8979dbd6309e300b165ffe45498c618'}]",050000,0,[],[],坪山区,宇哥金牌手撕鸡,"114.397797,22.708823",18608850897,[],B0LACHDBFN
[],石井街道田头社区矮岭村2巷7-1,910,广东省,[],"{'cost': '104.00', 'opentime2': '周一至周日 10:00-14:00,17:00-22:00', 'rating': '4.4', 'open_time': '10:00-14:00 17:00-22:00', 'meal_ordering': '0'}",diner,深圳市,餐饮服务;中餐厅;中餐厅,"[{'title': [], 'url': 'https://aos-comment.amap.com/B0K6NC47S9/comment/content_media_external_images_media_1000030661_ss__1753332371716_48651299.jpg'}, {'title': [], 'url': 'http://store.is.autonavi.com/showpic/a4a7656c624d6f39e446f470a91e599d'}, {'title': [], 'url': 'http://store.is.autonavi.com/showpic/49145aa4fefa884ae06992fb6a3be0f2'}]",050100,0,[],[],坪山区,罗记私房菜(矮岭店),"114.399918,22.692593",13528756959,[],B0K6NC47S9
[],上坝二路与上坝三路交叉口东北180米,920,广东省,[],"{'cost': [], 'opentime2': [], 'rating': '3.7', 'open_time': [], 'meal_ordering': '0'}",diner,深圳市,餐饮服务;中餐厅;中餐厅,"[{'title': [], 'url': 'http://store.is.autonavi.com/showpic/a2807c9957ad835d2b5785d8d2ac0e1b'}]",050100,0,[],[],坪山区,回忆二厂老饭盒,"114.398771,22.708970",17620332416,[],B0J277GJ81
B0FFLGT4FH,中海万锦熙岸华庭西门北90米,923,广东省,[],"{'cost': [], 'opentime2': [], 'rating': '3.7', 'open_time': [], 'meal_ordering': '0'}",diner,深圳市,餐饮服务;中餐厅;中餐厅,"[{'title': [], 'url': 'http://store.is.autonavi.com/showpic/26f427f63469777a5928b9bb7230ca1e'}]",050100,0,[],320,坪山区,武汉热干面馆,"114.393673,22.707521",[],[],B0KA949UW8
[],龙田街道竹坑社区上坝7号101-2,923,广东省,[],"{'cost': '21.00', 'opentime2': '周一至周日 10:30-02:00', 'rating': '4.2', 'open_time': '10:30-02:00', 'meal_ordering': '0'}",diner,深圳市,餐饮服务;快餐厅;快餐厅,"[{'title': [], 'url': 'http://store.is.autonavi.com/showpic/b6fdfeda077c14c2b5dbfb370b93cce6'}, {'title': [], 'url': 'http://store.is.autonavi.com/showpic/18280e7370caa5dbdf832aa1d74e1f39'}, {'title': [], 'url': 'http://store.is.autonavi.com/showpic/3ace81f64296918f25beb3a60eb9c441'}]",050300,1,[],[],坪山区,叫了只炸鸡(坪山竹坑店),"114.397208,22.708873",13432736974;19924561724,[],B0H6MAF2B1
[],龙田街道竹坑社区上坝村7号102-2,931,广东省,[],"{'cost': [], 'opentime2': '周一至周日 10:00-23:00', 'rating': '3.8', 'open_time': '10:00-23:00', 'meal_ordering': '0'}",diner,深圳市,餐饮服务;中餐厅;特色/地方风味餐厅,"[{'title': [], 'url': 'http://store.is.autonavi.com/showpic/51c3a597b0267c44f38ef2c87a0fbff4'}]",050118,0,[],[],坪山区,重庆邹记麻辣烫麻辣拌(上坝店),"114.397154,22.708935",13652428632;13714369772,[],B0HRHO8OEV
[],龙田街道竹坑社区上坝173号西南侧60米,940,广东省,[],"{'cost': [], 'opentime2': [], 'rating': '3.7', 'open_time': [], 'meal_ordering': '0'}",diner,深圳市,餐饮服务;餐饮相关场所;餐饮相关,"[{'title': [], 'url': 'http://store.is.autonavi.com/showpic/d472f5cfd553224330498932831e9bca'}]",050000,0,[],[],坪山区,喜小美在长沙,"114.398748,22.709150",13632551599,[],B0KUTXEL2U
[],金牛东路58-8号,941,广东省,[],"{'cost': [], 'opentime2': [], 'rating': '3.5', 'open_time': [], 'meal_ordering': '0'}",diner,深圳市,餐饮服务;餐饮相关场所;餐饮相关,"[{'title': [], 'url': 'http://store.is.autonavi.com/query_pic?id=st8780c076-dbca-447e-8fd7-f9c0cb694ac5&user=search&operate=original'}, {'title': [], 'url': 'http://store.is.autonavi.com/showpic/75d2cc75307695c71e6865a79bb1c954'}, {'title': [], 'url': 'http://store.is.autonavi.com/showpic/587d6bb3575f845e1ba4da3653cefcce'}]",050000,0,[],[],坪山区,古御贡茶(竹坑店),"114.397912,22.709125",[],[],B0K3SRPQ9T
[],龙田街道竹坑社区上坝村139栋101,943,广东省,[],"{'cost': '20.00', 'opentime2': '周一至周日 10:00-21:00', 'rating': '3.9', 'open_time': '10:00-21:00', 'meal_ordering': '0'}",diner,深圳市,餐饮服务;中餐厅;中餐厅,"[{'title': [], 'url': 'https://store.is.autonavi.com/showpic/f4b7009fa544a0d09aea079cc1c44e3b'}, {'title': [], 'url': 'https://store.is.autonavi.com/showpic/ef1836a6b339890f2af82cbfb642903a'}, {'title': [], 'url': 'http://store.is.autonavi.com/showpic/5c3833cbcc6f226fcee5a9fd159b5533'}]",050100,0,[],[],坪山区,缘来是煲仔饭(金牛东路店),"114.399108,22.709175",15289666305;17687655339;18823371964,[],B0G22OZL21
[],金兰路上坝村138-1,944,广东省,[],"{'cost': [], 'opentime2': [], 'rating': '3.9', 'open_time': [], 'meal_ordering': '0'}",diner,深圳市,餐饮服务;中餐厅;中餐厅,"[{'title': [], 'url': 'https://store.is.autonavi.com/showpic/3de8894b1a53cb5721bad2b775acbddb'}, {'title': [], 'url': 'http://store.is.autonavi.com/showpic/1ee314f657458a8b69a6921cf6f38bb7'}]",050100,0,[],[],坪山区,金牌手抓饼(竹坑店),"114.398969,22.709188",[],[],B0KRTZKZI9
[],金牛东路与金牛东路B区交叉口东南120米,946,广东省,[],"{'cost': '17.00', 'opentime2': [], 'rating': '3.8', 'open_time': [], 'meal_ordering': '0'}",diner,深圳市,餐饮服务;甜品店;甜品店,"[{'title': [], 'url': 'https://store.is.autonavi.com/showpic/d057f217b7d0bfdc80b39a69b142d709'}, {'title': [], 'url': 'https://store.is.autonavi.com/showpic/ef6a2c77ae1f6e1ccfe8dcabf140608f'}, {'title': [], 'url': 'https://store.is.autonavi.com/showpic/2a207548e100f13afd42d688524bbe0a'}]",050900,0,[],[],坪山区,喜三德甜品,"114.398965,22.709206",[],[],B0KRJ74O5A
[],龙田街道竹坑社区卷龙埔竹青路134号,948,广东省,[],"{'cost': [], 'opentime2': [], 'rating': '4.0', 'open_time': [], 'meal_ordering': '0'}",diner,深圳市,餐饮服务;餐饮相关场所;餐饮相关,"[{'title': [], 'url': 'http://store.is.autonavi.com/showpic/d33c2ddef995337890b9ac310643d290'}]",050000,0,[],[],坪山区,蛋糕很芒,"114.392733,22.707118",18818798174,[],B0KU1MPYAQ
[],金牛东路与金牛东路B区交叉口东南120米,948,广东省,[],"{'cost': [], 'opentime2': [], 'rating': '3.7', 'open_time': [], 'meal_ordering': '0'}",diner,深圳市,餐饮服务;中餐厅;中餐厅,[],050100,0,[],[],坪山区,常莱米粉南昌拌粉,"114.398964,22.709224",[],[],B0LDBOGJXT
[],龙田街道竹坑社区上坝村132-6号,950,广东省,[],"{'cost': [], 'opentime2': [], 'rating': '4.0', 'open_time': [], 'meal_ordering': '0'}",diner,深圳市,餐饮服务;餐饮相关场所;餐饮相关,"[{'title': [], 'url': 'http://store.is.autonavi.com/showpic/3cf19a49d11f1ebc1a4f3e0423d98050'}, {'title': [], 'url': 'http://store.is.autonavi.com/showpic/13eef7ca4c0c4a341eb1c03c54449892'}]",050000,0,[],[],坪山区,陈记海鲜粥烧烤大排档,"114.398328,22.709233",13560429045,[],B0LDF5IKTO
[],龙田街道竹坑社区上坝村上坝三路137-1号大掌柜小吃铺,950,广东省,[],"{'cost': [], 'opentime2': '周一至周日 10:00-22:00', 'rating': '3.9', 'open_time': '10:00-22:00', 'meal_ordering': '0'}",diner,深圳市,餐饮服务;中餐厅;中餐厅,"[{'title': [], 'url': 'http://store.is.autonavi.com/showpic/d685d3a1425c6f64686f9e1751ed58d8'}, {'title': [], 'url': 'http://store.is.autonavi.com/showpic/3a10a4f3aed0f685e9a95b3ec1ace372'}, {'title': [], 'url': 'http://store.is.autonavi.com/showpic/bea2549519d8a00d2f2b053dfd858fec'}]",050100,1,[],[],坪山区,大掌柜小吃铺,"114.398862,22.709245",[],[],B0LACSA3UD
[],上坝村132-6,951,广东省,[],"{'cost': [], 'opentime2': '周一至周日 06:00-23:00', 'rating': '4.1', 'open_time': '06:00-23:00', 'meal_ordering': '0'}",diner,深圳市,餐饮服务;餐饮相关场所;餐饮相关,"[{'title': [], 'url': 'http://store.is.autonavi.com/showpic/a14c2f00c6c0f085f37e6e54a7259275'}, {'title': [], 'url': 'http://store.is.autonavi.com/showpic/ad82aeb36f943f2cd23c490018fcc52a'}, {'title': [], 'url': 'http://store.is.autonavi.com/showpic/2dc07acbcf5d06ff58fe0533f0163f9a'}]",050000,1,[],[],坪山区,六六肠粉汤粉王,"114.398135,22.709228",13148791921;18926782450,[],B0I2PAAF0Y
[],金田路199-2号101,952,广东省,[],"{'cost': [], 'opentime2': '周一至周日 10:30-22:00', 'rating': '3.9', 'open_time': '10:30-22:00', 'meal_ordering': '0'}",diner,深圳市,餐饮服务;冷饮店;冷饮店,"[{'title': [], 'url': 'http://store.is.autonavi.com/showpic/e44a6fb1215585a59b1d5a87ca17e5a7'}, {'title': [], 'url': 'http://store.is.autonavi.com/showpic/078604ee0053d0453de0d2bc4445cd6f'}, {'title': [], 'url': 'http://store.is.autonavi.com/showpic/87e7dcca7a2984e44b3c83bc63876084'}]",050700,1,[],[],坪山区,茶趣鲜果茶,"114.396736,22.692366",13632855535,[],B0JUVH90XT
[],龙田街道竹坑社区上坝村132-4号,952,广东省,[],"{'cost': [], 'opentime2': '周一至周日 10:00-22:00', 'rating': '3.6', 'open_time': '10:00-22:00', 'meal_ordering': '0'}",diner,深圳市,餐饮服务;餐饮相关场所;餐饮相关,"[{'title': [], 'url': 'http://store.is.autonavi.com/showpic/f1ec52cb0ebbe597512b981ba7dc2ab7'}]",050000,1,[],[],坪山区,钱多多卤味小栈,"114.398240,22.709249",13128706889,[],B0LGL9OP5F
B0FFLGT4FH,龙田街道竹坑社区安居御龙苑2栋04,953,广东省,[],"{'cost': '18.00', 'opentime2': '周一至周日 07:00-14:00,17:00-22:00', 'rating': '4.3', 'open_time': '07:00-14:00 17:00-22:00', 'meal_ordering': '0'}",diner,深圳市,餐饮服务;中餐厅;中餐厅,"[{'title': [], 'url': 'http://store.is.autonavi.com/showpic/c9c1934af311fe6b0969320081dee3a1'}, {'title': [], 'url': 'http://store.is.autonavi.com/showpic/79ad1fb7614ceaae73a42695579b3918'}, {'title': [], 'url': 'http://store.is.autonavi.com/showpic/ab25a83d3c83254b0769a622c1f60bd6'}]",050100,1,[],320,坪山区,猪伯通·紫金八刀汤(竹坑店),"114.393695,22.707853",19168578130,[],B0K6HZCGV4
[],金牛东路与金牛东路B区交叉口南80米,971,广东省,[],"{'cost': [], 'opentime2': [], 'rating': '3.8', 'open_time': [], 'meal_ordering': '0'}",diner,深圳市,餐饮服务;餐饮相关场所;餐饮相关,"[{'title': [], 'url': 'http://store.is.autonavi.com/showpic/921e9d9e9370f9df3beb03ffdc1342ab'}]",050000,0,[],[],坪山区,京悦德北京烤鸭(上坝三路店),"114.398617,22.709429",13350257273,[],B0K0XSQDZ9
B0FFLQAIOV,龙田街道竹坑社区金牛东路145号奥园·翡翠东湾二期,978,广东省,[],"{'cost': '16.00', 'opentime2': [], 'rating': '3.8', 'open_time': [], 'meal_ordering': '0'}",diner,深圳市,餐饮服务;中餐厅;中餐厅,"[{'title': [], 'url': 'http://store.is.autonavi.com/showpic/6144f917b3372ece0b050ee6bf0cb8e1'}]",050100,0,[],320,坪山区,湖南杀猪粉(奥园·翡翠东湾店),"114.391897,22.706751",17373075299,[],B0JUZMCWIU
[],上坝村135号,978,广东省,[],"{'cost': '32.00', 'opentime2': '周一至周日 14:00-24:00', 'rating': '4.1', 'open_time': '14:00-24:00', 'meal_ordering': '0'}",diner,深圳市,餐饮服务;冷饮店;冷饮店,"[{'title': [], 'url': 'http://store.is.autonavi.com/showpic/25b630fc15e3f85ab768fe0014c9e893'}, {'title': [], 'url': 'http://store.is.autonavi.com/showpic/5c51c5528f65ca9b4c7ac0a96e98b171'}, {'title': [], 'url': 'http://store.is.autonavi.com/showpic/8e1cb497a8014fb52ea17fba7b492689'}]",050700,1,[],[],坪山区,壹号小院,"114.398813,22.709494",15112272432,[],B0JAFUKZBN
[],龙田街道竹坑社区金牛东路上坝村167号101,980,广东省,[],"{'cost': [], 'opentime2': '周一至周日 09:00-22:00', 'rating': '3.8', 'open_time': '09:00-22:00', 'meal_ordering': '0'}",diner,深圳市,餐饮服务;快餐厅;快餐厅,"[{'title': [], 'url': 'http://store.is.autonavi.com/showpic/2918636f5d7c4a55aa121b61ed1700f1'}, {'title': [], 'url': 'http://store.is.autonavi.com/showpic/9cfa854d16c3b653d3b1a3ae2ec06dc7'}]",050300,0,[],[],坪山区,爱来客轻食(竹坑店),"114.399899,22.709457",13430604570,[],B0HRLO2SA0
[],石井街道金田路184-5,986,广东省,[],"{'cost': [], 'opentime2': [], 'rating': '3.7', 'open_time': [], 'meal_ordering': '0'}",diner,深圳市,餐饮服务;餐饮相关场所;餐饮相关,"[{'title': [], 'url': 'http://store.is.autonavi.com/showpic/2d02baf1214c17d682250d4cfd1350c0'}, {'title': [], 'url': 'http://store.is.autonavi.com/showpic/4cefd9b35552a621e7416b39a6188df3'}, {'title': [], 'url': 'http://store.is.autonavi.com/showpic/3c059244c8caae75707d8d6e3adaff74'}]",050000,0,[],[],坪山区,暂坐,"114.398808,22.691842",[],[],B0KKS74BWM
[],石井街道田头铺金田路199号,998,广东省,[],"{'cost': [], 'opentime2': [], 'rating': '4.0', 'open_time': [], 'meal_ordering': '0'}",diner,深圳市,餐饮服务;中餐厅;中餐厅,"[{'title': [], 'url': 'http://store.is.autonavi.com/showpic/cc9bb02fbaf83fe11badd4fc9f5ce3e0'}]",050100,0,[],[],坪山区,雀记饭店,"114.396628,22.691967",0755-84636310;13480789919;15013724818,[],B0FFG8XQ3F
B0FFLQAIOV,龙田街道竹坑社区金牛东路145号奥园·翡翠东湾二期,1000,广东省,[],"{'cost': '27.00', 'opentime2': [], 'rating': '3.8', 'open_time': [], 'meal_ordering': '0'}",diner,深圳市,餐饮服务;快餐厅;快餐厅,"[{'title': [], 'url': 'http://store.is.autonavi.com/showpic/6086729652c05dd9a580d9e3a74afa76'}, {'title': [], 'url': 'http://store.is.autonavi.com/showpic/8db3e032db7f72353baf308cc81c5fdd'}]",050300,0,[],320,坪山区,欢喜客家小吃店(奥园·翡翠东湾店),"114.391783,22.706939",13530897578,[],B0IALDUEOS
[],石井街道田头社区金田路182号-103,1003,广东省,[],"{'cost': '81.00', 'opentime2': '周一至周日 09:30-21:30', 'rating': '4.7', 'open_time': '09:30-21:30', 'meal_ordering': '0'}",diner,深圳市,餐饮服务;中餐厅;中餐厅,"[{'title': [], 'url': 'http://store.is.autonavi.com/showpic/2fed76a0bcae1d39f3e017c02f20e6a6'}, {'title': [], 'url': 'http://store.is.autonavi.com/showpic/4b5e4c9f59a6a6c227b6703de45b237c'}, {'title': [], 'url': 'https://store.is.autonavi.com/showpic/641f3ce32e582fd2d746178bf782fa70'}]",050100,1,[],[],坪山区,山旮旯农家菜,"114.398020,22.691720",13691761728;13714698033,[],B0LBLRP20A
[],龙田街道竹坑社区上坝173号西侧,1004,广东省,[],"{'cost': [], 'opentime2': [], 'rating': '3.6', 'open_time': [], 'meal_ordering': '0'}",diner,深圳市,餐饮服务;中餐厅;中餐厅,"[{'title': [], 'url': 'http://store.is.autonavi.com/showpic/6631521397e7634107102e32767d3708'}]",050100,0,[],[],坪山区,鸡煲王,"114.398948,22.709726",[],[],B0JRFXXWMW
B0FFLQAIOV,奥园翡翠东湾二期金陵东路145-27号商铺,1013,广东省,[],"{'cost': [], 'opentime2': '周一至周日 11:00-22:00', 'rating': '4.0', 'open_time': '11:00-22:00', 'meal_ordering': '0'}",diner,深圳市,餐饮服务;中餐厅;潮州菜,"[{'title': [], 'url': 'http://store.is.autonavi.com/showpic/acccc526785de8a1afb1940fd3b35748'}, {'title': [], 'url': 'http://store.is.autonavi.com/showpic/f52b654894220e54f97586d3b1369c3c'}]",050123,1,[],320,坪山区,九号隆记隆江猪脚饭(奥园店),"114.391704,22.707030",17833980773,[],B0J3ZURKTC
[],金牛东路与金牛东路B区交叉口东100米,1015,广东省,[],"{'cost': [], 'opentime2': [], 'rating': '3.8', 'open_time': [], 'meal_ordering': '0'}",diner,深圳市,餐饮服务;餐饮相关场所;餐饮相关,"[{'title': [], 'url': 'http://store.is.autonavi.com/showpic/9f468f5bc56bbb7a171a863e4607b01a'}]",050000,0,[],[],坪山区,董哥餐饮,"114.399183,22.709822",13138185329,[],B0JBT56ZGF
[],石井街道金田路228号,1023,广东省,[],"{'cost': [], 'opentime2': '周一至周日 18:00-02:00', 'rating': '3.6', 'open_time': '18:00-02:00', 'meal_ordering': '0'}",diner,深圳市,餐饮服务;中餐厅;特色/地方风味餐厅,"[{'title': [], 'url': 'http://store.is.autonavi.com/showpic/17a6e267ac9454436df68d361d9ada7c'}, {'title': [], 'url': 'http://store.is.autonavi.com/showpic/70b26ca32a7959132a2933f8d99ef68c'}, {'title': [], 'url': 'http://store.is.autonavi.com/showpic/28b3d20b6183268d90d78e147866b819'}]",050118,1,[],[],坪山区,万州烤活鱼,"114.403031,22.692380",17346511522,[],B0K1Y1GAQP
B0FFLQAIOV,龙田街道竹坑社区金牛东路145号奥园·翡翠东湾二期,1023,广东省,[],"{'cost': '66.00', 'opentime2': [], 'rating': '4.1', 'open_time': [], 'meal_ordering': '0'}",diner,深圳市,餐饮服务;中餐厅;特色/地方风味餐厅,"[{'title': [], 'url': 'https://store.is.autonavi.com/showpic/8f534e6e53e5793b04a03d714342241e'}, {'title': [], 'url': 'https://store.is.autonavi.com/showpic/cd64a91494bc0766e3d5e76b1d020e3e'}, {'title': [], 'url': 'https://store.is.autonavi.com/showpic/ce6ac61d7ad9099ebe5a39e844793c08'}]",050118,0,[],320,坪山区,新疆胡杨烧烤(奥园·翡翠东湾二期店),"114.391597,22.707057",13699301716,[],B0IGA5SJTA
B0FFLQAIOV,龙田街道竹坑社区金牛东路145号奥园·翡翠东湾二期,1028,广东省,[],"{'cost': [], 'opentime2': [], 'rating': '3.8', 'open_time': [], 'meal_ordering': '0'}",diner,深圳市,餐饮服务;中餐厅;中餐厅,"[{'title': [], 'url': 'http://store.is.autonavi.com/showpic/b36340e0e6e18ec8e5faed093b6008fd'}]",050100,0,[],320,坪山区,杭州小笼包(奥园·翡翠东湾二期店),"114.391545,22.707063",[],[],B0K0659YEK
[],上坝村169号,1028,广东省,[],"{'cost': [], 'opentime2': [], 'rating': '3.9', 'open_time': [], 'meal_ordering': '0'}",diner,深圳市,餐饮服务;餐饮相关场所;餐饮相关,"[{'title': [], 'url': 'http://store.is.autonavi.com/showpic/c243a7be911a1d11cda46e283d8def3e'}, {'title': [], 'url': 'http://store.is.autonavi.com/showpic/2535d6a451815e9f133facf76b48d765'}]",050000,0,[],[],坪山区,融意·HEYMEAL,"114.399627,22.709916",18926485513,[],B0KRR12LN2
B0FFIZAE6F,龙田街道竹坑社区翠景路6号澜湾花园1栋D座M106,1028,广东省,[],"{'cost': '68.00', 'opentime2': '周一至周日 07:00-22:00', 'rating': '4.5', 'open_time': '07:00-22:00', 'meal_ordering': '0'}",diner,深圳市,餐饮服务;中餐厅;中餐厅,"[{'title': [], 'url': 'http://store.is.autonavi.com/showpic/8cc3508b298323d33927aa7643a26045'}, {'title': [], 'url': 'https://aos-comment.amap.com/B0HUKA7AL8/comment/376EB081_21D6_4C0F_ABFD_A2738EC675B3_L0_001_1500_200_1746790925862_64991534.jpg'}, {'title': [], 'url': 'https://aos-comment.amap.com/B0HUKA7AL8/comment/1CC410BE_5B03_4BC6_954D_991955D5AE05_L0_001_1500_200_1746790925863_05061044.jpg'}]",050100,1,[],320,坪山区,客家小厨(澜湾花园店),"114.393140,22.708327",15712145709,[],B0HUKA7AL8
[],坪山金田路与田日街交叉口西120米,1029,广东省,[],"{'cost': '56.00', 'opentime2': [], 'rating': '4.1', 'open_time': [], 'meal_ordering': '0'}",diner,深圳市,餐饮服务;中餐厅;特色/地方风味餐厅,"[{'title': [], 'url': 'http://store.is.autonavi.com/showpic/ec18cf25dca71dea7691244a41a6cb4e'}]",050118,0,[],[],坪山区,陈记重庆烤活鱼(金田路店),"114.403541,22.692550",[],[],B0GRK15GJC
B0FFIZAE6F,龙田街道竹坑社区翠景路6号澜湾花园1栋D座M103,1031,广东省,[],"{'cost': [], 'opentime2': '周一至周日 06:00-20:00', 'rating': '3.6', 'open_time': '06:00-20:00', 'meal_ordering': '0'}",diner,深圳市,餐饮服务;中餐厅;广东菜(粤菜)|餐饮服务;冷饮店;冷饮店,"[{'title': [], 'url': 'http://store.is.autonavi.com/showpic/ffae9c24ae7c4bda579bdd5b1fdf0aad'}, {'title': [], 'url': 'http://store.is.autonavi.com/showpic/6742bfa30928b3811c6d8b6ffb88c37e'}]",050103|050700,1,[],320,坪山区,澜湾餐厅(澜湾花园店),"114.393161,22.708364",15602447351,[],B0HDTDKHEW
[],石井金田路231号,1037,广东省,[],"{'cost': [], 'opentime2': '周一至周日 09:00-01:00', 'rating': '3.9', 'open_time': '09:00-01:00', 'meal_ordering': '0'}",diner,深圳市,餐饮服务;中餐厅;中餐厅,"[{'title': [], 'url': 'https://aos-comment.amap.com/B0I3JC6T1G/headerImg/fc23567263a8c3e4bd03b58ddde09fd6_2048_2048_80.jpg'}, {'title': [], 'url': 'http://store.is.autonavi.com/showpic/d4fe41b409defa33ba4ced65737c5e68'}, {'title': [], 'url': 'https://aos-comment.amap.com/B0I3JC6T1G/headerImg/e30741c62badb0afdfe62873d028292e_2048_2048_80.jpg'}]",050100,1,[],[],坪山区,杨记客家餐厅,"114.403500,22.692456",15013745316,[],B0I3JC6T1G
B0JDFRUUQI,坪河雅苑西区东门对面,1039,广东省,[],"{'cost': [], 'opentime2': '周一至周日 06:00-11:00，16:00-18:00', 'rating': '3.7', 'open_time': '06:00-11:00 16:00-18:00', 'meal_ordering': '0'}",diner,深圳市,餐饮服务;餐饮相关场所;餐饮相关,"[{'title': [], 'url': 'http://store.is.autonavi.com/showpic/cf75bc05ab6cb86818a191237982e74a'}]",050000,1,[],320,坪山区,坤哥酱香饼,"114.403473,22.708996",[],[],B0KG7S96SX
B0FFLQAIOV,龙田街道竹坑社区奥园翡翠东湾花园1栋0106,1044,广东省,[],"{'cost': '23.00', 'opentime2': '周五 10:00-23:00；周一至周四 10:00-22:00；周六 09:00-23:00；周日 09:00-22:00', 'rating': '4.2', 'open_time': '10:00-22:00', 'meal_ordering': '0'}",diner,深圳市,餐饮服务;快餐厅;快餐厅,"[{'title': [], 'url': 'https://store.is.autonavi.com/showpic/34620f72706ecb5a5a7dfba8c128d080?operate=original'}, {'title': [], 'url': 'https://store.is.autonavi.com/showpic/734283e7d770c0b0971bc0c9512400da'}, {'title': [], 'url': 'http://store.is.autonavi.com/showpic/c8fa2322d31eebcd47ddab5ee025979d'}]",050300,0,[],320,坪山区,尊宝比萨(奥园翡翠东湾店),"114.390929,22.706638",0755-28512952;0755-28512953,[],B0G0X50B0H
B0JDFRUUQI,龙田街道竹坑社区坪河雅苑东区1栋A座05铺,1045,广东省,[],"{'cost': [], 'opentime2': [], 'rating': '3.5', 'open_time': [], 'meal_ordering': '0'}",diner,深圳市,餐饮服务;餐饮相关场所;餐饮相关,"[{'title': [], 'url': 'http://store.is.autonavi.com/showpic/d85231a0d339cfd9e067631164d9b81d'}, {'title': [], 'url': 'http://store.is.autonavi.com/showpic/bfc5e9f229eb313224464768c85fabe2'}]",050000,1,[],320,坪山区,冠锋园汤包(茜坑店),"114.403487,22.709048",[],[],B0JD515ZDU
[],竹坑第三工业区东步生活荟B栋103号黔校长贵州地摊火锅,1048,广东省,[],"{'cost': [], 'opentime2': '周一至周日 16:00-02:00', 'rating': '3.9', 'open_time': '16:00-02:00', 'meal_ordering': '0'}",diner,深圳市,餐饮服务;中餐厅;火锅店,"[{'title': [], 'url': 'http://store.is.autonavi.com/showpic/2125a71d6ff3edfcc4e3cd8a69014bb8'}, {'title': [], 'url': 'https://store.is.autonavi.com/showpic/35832aff8e67e0f8963d82e1e0a6e48a'}, {'title': [], 'url': 'http://store.is.autonavi.com/showpic/8ea3aaece5358a28592f9659889d4bcc'}]",050117,1,[],[],坪山区,蜀黔校长贵州地摊火锅(竹坑店),"114.396245,22.709827",18667132831,[],B0KKZZFZ8T
[],龙田街道竹坑第三工业区生活中心综合楼B栋东步生活荟01楼108号商铺,1050,广东省,[],"{'cost': '12.00', 'opentime2': '周一至周日 07:00-01:00', 'rating': '4.4', 'open_time': '07:00-01:00', 'meal_ordering': '0'}",diner,深圳市,餐饮服务;中餐厅;中餐厅,"[{'title': [], 'url': 'http://store.is.autonavi.com/query_pic?id=stb6353f88-f4bc-4b7e-83d1-8fc82fab4719&user=search&operate=original'}, {'title': [], 'url': 'https://store.is.autonavi.com/showpic/4010c7d583593b91d15f4afa91de19fc'}, {'title': [], 'url': 'http://store.is.autonavi.com/showpic/e9eff5ada06f9767a029c44cf95251ab'}]",050100,0,[],[],坪山区,融柳大铁牛螺蛳粉(竹坑店),"114.396182,22.709826",15899509216,[],B0J2TC4KOZ
[],坪山区第三工业区东步生活荟,1050,广东省,[],"{'cost': [], 'opentime2': '周一至周日 17:00-03:00', 'rating': '3.8', 'open_time': '17:00-03:00', 'meal_ordering': '0'}",diner,深圳市,餐饮服务;餐饮相关场所;餐饮相关,"[{'title': [], 'url': 'https://aos-comment.amap.com/B0JD2MKYKI/headerImg/254b9587467ccd17c8509cd57d82a6bd_2048_2048_80.jpg'}, {'title': [], 'url': 'http://store.is.autonavi.com/showpic/2a6932c74e690c62e8c671b8a1f17896'}, {'title': [], 'url': 'http://store.is.autonavi.com/showpic/c5ec0680574fbd5ac58be911c2e506a0'}]",050000,1,[],[],坪山区,老表柴火鸡,"114.396171,22.709826",[],[],B0JD2MKYKI
B0FFIZAE6F,深圳市澜湾花园1栋c座金牛东路27号,1054,广东省,[],"{'cost': '35.00', 'opentime2': [], 'rating': '4.0', 'open_time': [], 'meal_ordering': '0'}",diner,深圳市,餐饮服务;中餐厅;中餐厅,"[{'title': [], 'url': 'http://store.is.autonavi.com/showpic/2d5f3295e435bbd8f6866d6cc488c6cc'}, {'title': [], 'url': 'http://store.is.autonavi.com/showpic/c6bf374d08e8881a3739bcc2851d9dae'}, {'title': [], 'url': 'https://store.is.autonavi.com/showpic/6926366d8d2dad1c3392a76aa2c8f898'}]",050100,0,[],320,坪山区,鲜小厨餐厅,"114.392798,22.708387",18029993220,[],B0LD17L9P1
[],金田路236-1号,1057,广东省,[],"{'cost': [], 'opentime2': [], 'rating': '3.5', 'open_time': [], 'meal_ordering': '0'}",diner,深圳市,餐饮服务;中餐厅;中餐厅,"[{'title': [], 'url': 'http://store.is.autonavi.com/showpic/60927f084d6f3e0fef78af7cc5f6ebec'}]",050100,0,[],[],坪山区,香溢沙县小吃,"114.403874,22.692432",[],[],B0H6HUH2HM
B0JDFRUUQI,龙田街道竹坑社区坪河雅苑东区1栋A座05铺,1058,广东省,[],"{'cost': [], 'opentime2': [], 'rating': '3.8', 'open_time': [], 'meal_ordering': '0'}",diner,深圳市,餐饮服务;中餐厅;中餐厅,"[{'title': [], 'url': 'http://store.is.autonavi.com/showpic/4c1aae3ac33b43f70a86b0adb4866ff8'}, {'title': [], 'url': 'http://store.is.autonavi.com/showpic/2cace0634658fb65e2b3afbcac1d25a4'}, {'title': [], 'url': 'http://store.is.autonavi.com/showpic/1bb2d099d464e69208afeb15c722e563'}]",050100,1,[],320,坪山区,梅州腌面肠粉王(坪河雅苑店),"114.403422,22.709209",14718038530,[],B0J36SMCAX
[],坪山金田路与田日街交叉口西100米,1060,广东省,[],"{'cost': [], 'opentime2': [], 'rating': '3.9', 'open_time': [], 'meal_ordering': '0'}",diner,深圳市,餐饮服务;中餐厅;中餐厅,"[{'title': [], 'url': 'http://store.is.autonavi.com/showpic/673ee5dac5646e9389dd5607f9d66f44'}]",050100,0,[],[],坪山区,肥肠面,"114.404156,22.692560",15108480518,[],B0K6MMFVMA
[],龙田街道竹坑社区茜坑二区18号,1060,广东省,[],"{'cost': [], 'opentime2': '周一至周日 10:00-23:00', 'rating': '3.5', 'open_time': '10:00-23:00', 'meal_ordering': '0'}",diner,深圳市,餐饮服务;中餐厅;海鲜酒楼,"[{'title': [], 'url': 'http://store.is.autonavi.com/showpic/c57229c9310bd47628fcfc1a8a4dd5d6'}]",050119,0,[],[],坪山区,战虾湖龙虾馆(深圳技术大学店),"114.401722,22.709844",15012953386,[],B0LDRUD7EK
B0FFIZAE6F,龙田街道竹坑社区翠景路6号澜湾花园,1060,广东省,[],"{'cost': [], 'opentime2': [], 'rating': '3.5', 'open_time': [], 'meal_ordering': '0'}",diner,深圳市,餐饮服务;糕饼店;糕饼店,"[{'title': [], 'url': 'http://store.is.autonavi.com/showpic/9c9660eb8fcf9260e1135ef02349d50e'}]",050800,0,[],320,坪山区,昭君王宫酸奶大麻花(澜湾花园店),"114.392702,22.708389",[],[],B0JKTXC909
[],金牛东路与金牛东路B区交叉口东北60米,1062,广东省,[],"{'cost': [], 'opentime2': [], 'rating': '4.1', 'open_time': [], 'meal_ordering': '0'}",diner,深圳市,餐饮服务;中餐厅;中餐厅,"[{'title': [], 'url': 'http://store.is.autonavi.com/showpic/24828ef028a5d05a1617602d7f90c026'}]",050100,0,[],[],坪山区,客来尊奇酷鱼庄烧烤吧,"114.397663,22.710188",13554985258,[],B0K6X7UDCI
B0FFIZAE6F,龙田街道竹坑社区翠景路6号澜湾花园,1066,广东省,[],"{'cost': [], 'opentime2': '周一至周日 09:00-22:30', 'rating': '4.1', 'open_time': '09:00-22:30', 'meal_ordering': '0'}",diner,深圳市,餐饮服务;餐饮相关场所;餐饮相关,"[{'title': [], 'url': 'http://store.is.autonavi.com/showpic/fd426661542526893c4ecacdd7d9c562'}, {'title': [], 'url': 'http://store.is.autonavi.com/showpic/16ab6102e97b4dad42d5f4a058aef3a4'}, {'title': [], 'url': 'http://store.is.autonavi.com/showpic/03b132b1ddcf74ffca307e78715b08ff'}]",050000,0,[],320,坪山区,王宫卤味(坪山总店),"114.392547,22.708354",18211558887,[],B0H2RS3R2U
[],金牛东路58-10号,1067,广东省,[],"{'cost': [], 'opentime2': '周一至周日 11:00-22:30', 'rating': '3.9', 'open_time': '11:00-22:30', 'meal_ordering': '0'}",diner,深圳市,餐饮服务;冷饮店;冷饮店,"[{'title': [], 'url': 'https://aos-comment.amap.com/B0H24MNNT1/comment/ca91e4e0f060a49e76a8657825b546b1_2048_2048_80.jpg'}, {'title': [], 'url': 'https://aos-comment.amap.com/B0H24MNNT1/comment/6163a9a4e58177df94742ee1471943be_2048_2048_80.jpg'}, {'title': [], 'url': 'https://aos-comment.amap.com/B0H24MNNT1/comment/11fc81516482ef5b05937e7185525503_2048_2048_80.jpg'}]",050700,0,[],[],坪山区,WAO校茶(深技大),"114.401795,22.709889",15089895168,[],B0H24MNNT1
B0FFLQAIOV,龙田街道竹坑社区金牛东路145号奥园·翡翠东湾二期,1067,广东省,[],"{'cost': '13.00', 'opentime2': [], 'rating': '3.8', 'open_time': [], 'meal_ordering': '0'}",diner,深圳市,餐饮服务;餐饮相关场所;餐饮相关,"[{'title': [], 'url': 'https://store.is.autonavi.com/showpic/ce0ed908735d8e7670418e5d860d4f53'}, {'title': [], 'url': 'https://store.is.autonavi.com/showpic/ba08d75573b4041a9920a1188f1a068b'}, {'title': [], 'url': 'https://store.is.autonavi.com/showpic/e1be17fa5c793f3424e9a55034569f1c'}]",050000,0,[],320,坪山区,柠一手作咖啡(奥园店),"114.390719,22.706731",13342965959;15099780867,[],B0J2270X7C
[],龙田街道竹坑社区第三工业区B区37、38、39号商住楼101,1068,广东省,[],"{'cost': '51.00', 'opentime2': '周一至周日 15:30-01:30', 'rating': '4.3', 'open_time': '15:30-01:30', 'meal_ordering': '0'}",diner,深圳市,餐饮服务;餐饮相关场所;餐饮相关,"[{'title': [], 'url': 'http://store.is.autonavi.com/showpic/067fa564a228cbe684edc1dc9f473fc5'}]",050000,0,[],[],坪山区,独舌小钓(大学店),"114.397912,22.710271",13554832628;19925354368,[],B0FFKTAM8Z
[],竹坑第三工业区金牛中路B区,1070,广东省,[],"{'cost': [], 'opentime2': '周一至周日 11:00-14:00,17:00-04:00', 'rating': '4.5', 'open_time': '11:00-14:00 17:00-04:00', 'meal_ordering': '0'}",diner,深圳市,餐饮服务;中餐厅;中餐厅,"[{'title': [], 'url': 'http://store.is.autonavi.com/showpic/ff7ee07ace83a63f96676fa38e685d4f'}, {'title': [], 'url': 'https://aos-comment.amap.com/B0FFFZ2GVE/comment/content_media_external_file_9834_1758120683900_22360922.jpg'}, {'title': [], 'url': 'https://store.is.autonavi.com/showpic/98740e370850348ee47f0c0b2f75be8c'}]",050100,0,[],[],坪山区,和记砂锅粥,"114.397459,22.710237",15019275373,[],B0FFFZ2GVE
[],金牛东路58-2号,1072,广东省,[],"{'cost': '44.00', 'opentime2': '周一至周日 17:00-01:00', 'rating': '4.6', 'open_time': '17:00-01:00', 'meal_ordering': '0'}",diner,深圳市,餐饮服务;中餐厅;中餐厅,"[{'title': [], 'url': 'https://store.is.autonavi.com/showpic/5a860747f5bda96f3379eadbb4551819'}, {'title': [], 'url': 'https://store.is.autonavi.com/showpic/4156702b72704bf108cb75133813f4a0'}, {'title': [], 'url': 'https://store.is.autonavi.com/showpic/83b6065895fe974432d5799d1f2d416f'}]",050100,0,[],[],坪山区,佑见里鲜切碳烤牛肉,"114.398086,22.710316",15815555264,[],B0LA2HGIYI
[],龙田街道竹坑社区第三工业区生活中心综合楼B栋B110,1073,广东省,[],"{'cost': '21.00', 'opentime2': '周一至周日 10:30-22:00', 'rating': '4.3', 'open_time': '10:30-22:00', 'meal_ordering': '0'}",diner,深圳市,餐饮服务;中餐厅;中餐厅,"[{'title': [], 'url': 'http://store.is.autonavi.com/showpic/a853b3715b49a22ee44bccc145b41590'}, {'title': [], 'url': 'http://store.is.autonavi.com/showpic/12b0ba988952275cd61319c5f6dc1a7a'}]",050100,0,[],[],坪山区,杠杠香煲仔饭,"114.396161,22.710037",13926894096,[],B0KAHZ08PP
B0JDFRUUQI,深圳市坪河雅苑东区AB座1-8号铺,1075,广东省,[],"{'cost': [], 'opentime2': '周一至周日 06:00-20:00', 'rating': '3.5', 'open_time': '06:00-20:00', 'meal_ordering': '0'}",diner,深圳市,餐饮服务;中餐厅;中餐厅,"[{'title': [], 'url': 'https://store.is.autonavi.com/showpic/fd81d0fb2aa6909b4fec87748b6d859b'}, {'title': [], 'url': 'https://store.is.autonavi.com/showpic/d565d4ed20cd7a70901653f6bbf2a999'}, {'title': [], 'url': 'http://store.is.autonavi.com/showpic/7ca224d85f620a27c24388ba4314370c'}]",050100,1,[],320,坪山区,乐家肠粉店,"114.403908,22.709142",13410822885,[],B0J0UOAPVV
[],金牛东路58-3号,1076,广东省,[],"{'cost': '60.00', 'opentime2': '周一至周日 17:00-04:00', 'rating': '4.5', 'open_time': '17:00-04:00', 'meal_ordering': '0'}",diner,深圳市,餐饮服务;餐饮相关场所;餐饮相关,"[{'title': [], 'url': 'https://aos-comment.amap.com/B0KA5U4VGS/comment/content_media_external_images_media_352_1740205158467_24480541.jpg'}, {'title': [], 'url': 'https://aos-comment.amap.com/B0KA5U4VGS/comment/content_media_external_images_media_353_1740205158468_60147578.jpg'}, {'title': [], 'url': 'https://aos-comment.amap.com/B0KA5U4VGS/comment/content_media_external_images_media_352_1740205158469_47423755.jpg'}]",050000,1,[],[],坪山区,渔夫传说(坪山竹坑店),"114.398098,22.710357",19129907059;19129907509,[],B0KA5U4VGS
[],金田路236-1号,1078,广东省,[],"{'cost': [], 'opentime2': [], 'rating': '4.2', 'open_time': [], 'meal_ordering': '0'}",diner,深圳市,餐饮服务;中餐厅;中餐厅,"[{'title': [], 'url': 'http://store.is.autonavi.com/showpic/c4e46f4563f163e8ed882b47a1d64c88'}]",050100,0,[],[],坪山区,钟记肠粉,"114.403965,22.692271",13662695181,[],B0FFLJQ6MJ
B0JDFRUUQI,深圳市坪河雅苑东区AB座1-8号铺,1075,广东省,[],"{'cost': [], 'opentime2': '周一至周日 06:00-20:00', 'rating': '3.5', 'open_time': '06:00-20:00', 'meal_ordering': '0'}",diner,深圳市,餐饮服务;中餐厅;中餐厅,"[{'title': [], 'url': 'https://store.is.autonavi.com/showpic/fd81d0fb2aa6909b4fec87748b6d859b'}, {'title': [], 'url': 'https://store.is.autonavi.com/showpic/d565d4ed20cd7a70901653f6bbf2a999'}, {'title': [], 'url': 'http://store.is.autonavi.com/showpic/7ca224d85f620a27c24388ba4314370c'}]",050100,1,[],320,坪山区,乐家肠粉店,"114.403908,22.709142",13410822885,[],B0J0UOAPVV
[],金牛东路58-3号,1076,广东省,[],"{'cost': '60.00', 'opentime2': '周一至周日 17:00-04:00', 'rating': '4.5', 'open_time': '17:00-04:00', 'meal_ordering': '0'}",diner,深圳市,餐饮服务;餐饮相关场所;餐饮相关,"[{'title': [], 'url': 'https://aos-comment.amap.com/B0KA5U4VGS/comment/content_media_external_images_media_352_1740205158467_24480541.jpg'}, {'title': [], 'url': 'https://aos-comment.amap.com/B0KA5U4VGS/comment/content_media_external_images_media_353_1740205158468_60147578.jpg'}, {'title': [], 'url': 'https://aos-comment.amap.com/B0KA5U4VGS/comment/content_media_external_images_media_352_1740205158469_47423755.jpg'}]",050000,1,[],[],坪山区,渔夫传说(坪山竹坑店),"114.398098,22.710357",19129907059;19129907509,[],B0KA5U4VGS
[],金田路236-1号,1078,广东省,[],"{'cost': [], 'opentime2': [], 'rating': '4.2', 'open_time': [], 'meal_ordering': '0'}",diner,深圳市,餐饮服务;中餐厅;中餐厅,"[{'title': [], 'url': 'http://store.is.autonavi.com/showpic/c4e46f4563f163e8ed882b47a1d64c88'}]",050100,0,[],[],坪山区,钟记肠粉,"114.403965,22.692271",13662695181,[],B0FFLJQ6MJ
B0JDFRUUQI,龙田街道金牛东路坪河雅苑东区AB栋一楼1-6号铺,1080,广东省,[],"{'cost': [], 'opentime2': [], 'rating': '3.9', 'open_time': [], 'meal_ordering': '0'}",diner,深圳市,餐饮服务;中餐厅;中餐厅,"[{'title': [], 'url': 'http://store.is.autonavi.com/showpic/644fe9c109ce5d47cc6b78d6bf22d619'}]",050100,0,[],320,坪山区,雪茶·奶茶咖啡卤味(坪河雅苑店),"114.403736,22.709283",19897111591,[],B0J06LQP7E
[],田头社区市场路23号,1081,广东省,[],"{'cost': [], 'opentime2': [], 'rating': '3.7', 'open_time': [], 'meal_ordering': '0'}",diner,深圳市,餐饮服务;糕饼店;糕饼店,"[{'title': [], 'url': 'http://s-pic.oss-cn-beijing.aliyuncs.com/desensitize/images/publish/66077224.jpg?x-oss-process=image/watermark,image_d2F0ZXJtYXJrLmpwZw'}]",050800,0,[],[],坪山区,琪香蛋糕(坪山金田路店),"114.403963,22.692237",[],[],B0FFHKQC0C
[],龙田街道竹坑社区金牛东路58-8号,1086,广东省,[],"{'cost': '76.00', 'opentime2': '周一至周日 10:30-01:30', 'rating': '4.0', 'open_time': '10:30-01:30', 'meal_ordering': '0'}",diner,深圳市,餐饮服务;中餐厅;东北菜,"[{'title': [], 'url': 'http://store.is.autonavi.com/showpic/37ffa66258e7f9832dd06486c0dfbf15'}, {'title': [], 'url': 'http://store.is.autonavi.com/showpic/73ba542636d5355709e007a97bf47b27'}, {'title': [], 'url': 'http://store.is.autonavi.com/showpic/0dda6484c4cbc5fe95fd0554972826cd'}]",050113,1,[],[],坪山区,仓北肴东北老家北方菜铁锅炖夜市小烧烤,"114.397918,22.710434",18025308850,[],B0JDYRYDCP
[],龙田街道竹坑社区茜坑村10号泊寓竹坑公社101,1087,广东省,[],"{'cost': [], 'opentime2': [], 'rating': '4.0', 'open_time': [], 'meal_ordering': '0'}",diner,深圳市,餐饮服务;中餐厅;湖南菜(湘菜),"[{'title': [], 'url': 'http://store.is.autonavi.com/showpic/bfb3628b89cafff84d927212232b9155'}]",050108,0,[],[],坪山区,农耕记·湖南土菜(泊寓·竹坑公社店),"114.401928,22.710038",19129985481,[],B0IRTSCBKY
[],金牛东路B区58-17,1088,广东省,[],"{'cost': [], 'opentime2': '周一至周日 10:00-24:00', 'rating': '4.2', 'open_time': '10:00-24:00', 'meal_ordering': '0'}",diner,深圳市,餐饮服务;中餐厅;火锅店,"[{'title': [], 'url': 'https://store.is.autonavi.com/showpic/0280b50274ea84eccb821bd25b8518e7'}, {'title': [], 'url': 'https://store.is.autonavi.com/showpic/eb1b1990b6bebf9d62eb859c1427d033'}, {'title': [], 'url': 'https://aos-comment.amap.com/B0LR4NP596/comment/content_media_external_file_100005809_1756269493673_24849227.jpg'}]",050117,0,[],[],坪山区,贵州全牛烩老安顺幺铺毛肚火锅竹坑分店,"114.398345,22.710469",18083147488,[],B0LR4NP596
[],龙田街道竹坑社区第三工业区生活中心综合楼B栋111,1090,广东省,[],"{'cost': '23.00', 'opentime2': '周一至周日 10:00-22:00', 'rating': '4.4', 'open_time': '10:00-22:00', 'meal_ordering': '0'}",diner,深圳市,餐饮服务;中餐厅;中餐厅,"[{'title': [], 'url': 'http://store.is.autonavi.com/showpic/87ea1c62607c12c83a83431883753ba9'}, {'title': [], 'url': 'http://store.is.autonavi.com/showpic/6eb7e02056e196666957c1044985a9f4'}, {'title': [], 'url': 'http://store.is.autonavi.com/showpic/4aa07be4117522c72f703f587a82e8eb'}]",050100,1,[],[],坪山区,佳味烧鹅,"114.396212,22.710200",15712086617,[],B0KB1ZB9UU
[],龙田街道竹坑社区茜坑村36-2,1090,广东省,[],"{'cost': '18.00', 'opentime2': '周一至周日 10:30-01:00', 'rating': '4.3', 'open_time': '10:30-01:00', 'meal_ordering': '0'}",diner,深圳市,餐饮服务;餐饮相关场所;餐饮相关,"[{'title': [], 'url': 'https://aos-comment.amap.com/B0I3HA8EN6/comment/aab2aa93e209b4b848161cfe86e37345_2048_2048_80.jpg'}, {'title': [], 'url': 'https://aos-comment.amap.com/B0I3HA8EN6/comment/39c32e84d19787d3dd1f9583fefa6b7b_2048_2048_80.jpg'}, {'title': [], 'url': 'https://aos-comment.amap.com/B0I3HA8EN6/comment/9a55612e628cd5a33106c4a0665c8327_2048_2048_80.jpg'}]",050000,1,[],[],坪山区,Neon Lemonade霓虹柠茶,"114.401936,22.710067",13316992745,[],B0I3HA8EN6
[],金牛东路58-16号(新联商场旁),1091,广东省,[],"{'cost': [], 'opentime2': '周一至周日 06:00-01:00', 'rating': '4.1', 'open_time': '06:00-01:00', 'meal_ordering': '0'}",diner,深圳市,餐饮服务;中餐厅;特色/地方风味餐厅,"[{'title': [], 'url': 'http://store.is.autonavi.com/showpic/db5e65666c4e08e03048e213434099aa'}, {'title': [], 'url': 'http://store.is.autonavi.com/showpic/0c48c9b5a74daf0d633ccdc2e75c219a'}, {'title': [], 'url': 'http://store.is.autonavi.com/showpic/5424792c8c966a917d8aeb9b14257d20'}]",050118,1,[],[],坪山区,沙县小吃,"114.398253,22.710493",13006613885;15986717610,[],B0FFGI1XKL
[],田头社区老围村四巷5号,1092,广东省,[],"{'cost': [], 'opentime2': '周一至周日 07:00-21:00', 'rating': '3.8', 'open_time': '07:00-21:00', 'meal_ordering': '0'}",diner,深圳市,餐饮服务;餐饮相关场所;餐饮相关,"[{'title': [], 'url': 'http://store.is.autonavi.com/showpic/2c88d5a91462b69a9275bc32ac7c9934'}]",050000,1,[],[],坪山区,华源私房菜,"114.403131,22.691743",13725528314,[],B0H0JHU7QA
B0JDFRUUQI,坪河雅苑东区,1092,广东省,[],"{'cost': [], 'opentime2': [], 'rating': '3.7', 'open_time': [], 'meal_ordering': '0'}",diner,深圳市,餐饮服务;糕饼店;糕饼店,"[{'title': [], 'url': 'http://store.is.autonavi.com/showpic/8615660f598457d96ceb537937abf82f'}, {'title': [], 'url': 'http://store.is.autonavi.com/showpic/fb24e13e0b6d65e2ffe8de1964fd6e93'}, {'title': [], 'url': 'http://store.is.autonavi.com/showpic/229aaca7696fba70bc0b9e7c06a052a1'}]",050800,0,[],320,坪山区,初心烘焙(坪河雅苑东区店),"114.404316,22.709100",[],[],B0K33HVHIB
[],石井街道田头社区田裕路10-4号,1095,广东省,[],"{'cost': [], 'opentime2': '周一至周日 11:00-14:00,17:00-21:00', 'rating': '3.6', 'open_time': '11:00-14:00 17:00-21:00', 'meal_ordering': '0'}",diner,深圳市,餐饮服务;中餐厅;中餐厅,"[{'title': [], 'url': 'http://store.is.autonavi.com/showpic/fd178c06845c85f0496cb7eb70b223b3'}, {'title': [], 'url': 'http://store.is.autonavi.com/showpic/2e1daab5fd4fc80a08e964ac45c2805d'}, {'title': [], 'url': 'http://store.is.autonavi.com/showpic/de2ae26671fbf85b5aed3a7c8c8042f1'}]",050100,1,[],[],坪山区,陕西面馆,"114.399623,22.690892",19829253815,[],B0IR1LV2IS
[],竹坑村金牛东路56-4,1095,广东省,[],"{'cost': '61.00', 'opentime2': '周一至周日 17:30-03:00', 'rating': '3.9', 'open_time': '17:30-03:00', 'meal_ordering': '0'}",diner,深圳市,餐饮服务;中餐厅;特色/地方风味餐厅,"[{'title': [], 'url': 'http://store.is.autonavi.com/showpic/73b53289afb7412d0081d3c88953c158'}, {'title': [], 'url': 'http://store.is.autonavi.com/showpic/e6bcc799bdd455e3edb37dd7813ee688'}, {'title': [], 'url': 'http://store.is.autonavi.com/showpic/45d36f728b07bb18708227f055f84295'}]",050118,1,[],[],坪山区,龙记·湛江烧蚝(竹坑新联店),"114.398075,22.710525",13570880342,[],B0FFF4G8RF
[],金牛东路58-18号,1096,广东省,[],"{'cost': '12.00', 'opentime2': '周一至周日 06:00-21:00', 'rating': '4.0', 'open_time': '06:00-21:00', 'meal_ordering': '0'}",diner,深圳市,餐饮服务;中餐厅;中餐厅,"[{'title': [], 'url': 'http://store.is.autonavi.com/showpic/a53b9417aab31dbf6c2f45f71fd82998'}, {'title': [], 'url': 'http://store.is.autonavi.com/showpic/4eed844b77697f2a3128a5cc63cda81c'}, {'title': [], 'url': 'http://store.is.autonavi.com/showpic/797ae2c7386538c73f50ed6c427c2e6c'}]",050100,0,[],[],坪山区,三津汤包(坪山竹坑第三工业区店),"114.398283,22.710547",[],[],B0FFK8R1TV
[],龙田街道竹坑社区金牛东路56-8号,1098,广东省,[],"{'cost': '63.00', 'opentime2': '周一至周日 17:00-02:00', 'rating': '4.3', 'open_time': '17:00-02:00', 'meal_ordering': '0'}",diner,深圳市,餐饮服务;中餐厅;火锅店,"[{'title': [], 'url': 'http://store.is.autonavi.com/showpic/e5463026d116bd5c72cf964fa6328252'}, {'title': [], 'url': 'http://store.is.autonavi.com/showpic/325e6dea17c8a2f3a209d777a2ff3dc1'}, {'title': [], 'url': 'https://aos-comment.amap.com/B0K3XR4FUO/comment/33DB85C0_9533_4D9E_BA67_DE97DFBD98C0_L0_001_2000_2000_1734863767278_97049212.jpg'}]",050117,1,[],[],坪山区,黔悠悠贵州地摊火锅(坪山店),"114.398723,22.710574",18570591357,[],B0K3XR4FUO
[],坪山竹坑股份合作公司第三工业区东南门西50米,1101,广东省,[],"{'cost': '18.00', 'opentime2': '周一至周日 09:30-02:30', 'rating': '4.2', 'open_time': '09:30-02:30', 'meal_ordering': '0'}",diner,深圳市,餐饮服务;快餐厅;快餐厅,"[{'title': [], 'url': 'http://store.is.autonavi.com/query_pic?id=ste6db5892-09f3-4bcf-9d22-ab3e8de8b712&user=search&operate=original'}, {'title': [], 'url': 'http://store.is.autonavi.com/showpic/1eb71cc25d06f82494735bb460753ceb'}]",050300,0,[],[],坪山区,波客派炸鸡汉堡(坪山竹坑股份合作公司第三工业区店),"114.398718,22.710596",0755-89997587;0755-89997687,[],B0FFIL0HHH
B0JDFRUUQI,坪河雅苑东区,1101,广东省,[],"{'cost': [], 'opentime2': [], 'rating': '3.7', 'open_time': [], 'meal_ordering': '0'}",diner,深圳市,餐饮服务;中餐厅;中餐厅,"[{'title': [], 'url': 'http://store.is.autonavi.com/showpic/96a63b7091199f26ed00dee40841a209'}]",050100,0,[],320,坪山区,全家福(坪河雅苑店),"114.404343,22.709182",[],[],B0JULUMT5J
[],"金牛东路第三工业区B区35,36号商住楼105",1102,广东省,[],"{'cost': '16.00', 'opentime2': [], 'rating': '4.2', 'open_time': [], 'meal_ordering': '0'}",diner,深圳市,餐饮服务;快餐厅;快餐厅,"[{'title': [], 'url': 'https://aos-comment.amap.com/B0H1KL3TMZ/comment/1837AF6A_BE40_4060_A478_518AED29D313_L0_001_1080_192_1760966668165_29898817.jpg'}, {'title': [], 'url': 'http://store.is.autonavi.com/showpic/3795e00dde06d7824b096909a6b46cc9'}, {'title': [], 'url': 'https://aos-comment.amap.com/B0H1KL3TMZ/comment/06933144_4BCA_4A9F_86A8_C698DD4B01CC_L0_001_1080_192_1760966668165_71010226.jpg'}]",050300,0,[],[],坪山区,林记老上海馄饨铺(竹坑店),"114.397456,22.710530",18922827544;18950490888,[],B0H1KL3TMZ
